KUIPER-00079            
1 64826U 25151L   25206.75002315 -.00020905  00000+0 -58236-3 0  9992
2 64826  51.8778 241.8739 0006185 166.1250  96.5781 15.35748166  1305
KUIPER-00080            
1 64827U 25151M   25206.75002315 -.00021231  00000+0 -59707-3 0  9990
2 64827  51.8782 241.8966 0005076 175.5438  77.3608 15.35473258  1596
KUIPER-00082            
1 64828U 25151N   25206.75002315 -.00020506  00000+0 -57424-3 0  9999
2 64828  51.8775 241.8841 0005560 170.8406  85.8354 15.35579237  1587
KUIPER-00083            
1 64829U 25151P   25206.75002315 -.00021575  00000+0 -61308-3 0  9993
2 64829  51.8770 241.9053 0005366 179.2120  66.5172 15.35159748  2642
KUIPER-00084            
1 64830U 25151Q   25206.75002315 -.00021166  00000+0 -60326-3 0  9990
2 64830  51.8779 241.9248 0005861 192.7834  45.4117 15.35051150  1306
KUIPER-00085            
1 64831U 25151R   25206.75002315 -.00021583  00000+0 -60216-3 0  9992
2 64831  51.8778 241.8759 0005960 166.3439  95.3435 15.35725220  2405
KUIPER-00086            
1 64832U 25151S   25206.75002315 -.00017771  00000+0 -50513-3 0  9996
2 64832  51.8772 241.9173 0005389 189.0986  51.5820 15.35015054  1302
KUIPER-00087            
1 64833U 25151T   25206.75002315 -.00021726  00000+0 -61180-3 0  9994
2 64833  51.8780 241.8898 0005468 167.7721  88.1431 15.35444990  2594
